
[{"ORDINAL":"2","COMMENT":"GENERATED VIA SPACETRACK.ORG API","ORIGINATOR":"JSPOC","NORAD_CAT_ID":"40507","OBJECT_NAME":"BREEZE-M DEB (TANK)","OBJECT_TYPE":"DEBRIS","CLASSIFICATION_TYPE":"U","INTLDES":"15012C","EPOCH":"2015-04-08 09:56:28","EPOCH_MICROSECONDS":"300416","MEAN_MOTION":"4.76834355","ECCENTRICITY":"0.5490062","INCLINATION":"49.4887","RA_OF_ASC_NODE":"142.6636","ARG_OF_PERICENTER":"5.4122","MEAN_ANOMALY":"358.798","EPHEMERIS_TYPE":"0","ELEMENT_SET_NO":"999","REV_AT_EPOCH":"97","BSTAR":"0","MEAN_MOTION_DOT":"-1.6e-07","MEAN_MOTION_DDOT":"0","FILE":"1852942","TLE_LINE0":"0 BREEZE-M DEB (TANK)","TLE_LINE1":"1 40507U 15012C   15098.41421644 -.00000016  00000-0  00000+0 0  9991","TLE_LINE2":"2 40507 049.4887 142.6636 5490062 005.4122 358.7980 04.76834355   977","OBJECT_ID":"2015-012C","OBJECT_NUMBER":"40507"},{"ORDINAL":"2","COMMENT":"GENERATED VIA SPACETRACK.ORG API","ORIGINATOR":"JSPOC","NORAD_CAT_ID":"40113","OBJECT_NAME":"CZ-4C DEB","OBJECT_TYPE":"DEBRIS","CLASSIFICATION_TYPE":"U","INTLDES":"14047E","EPOCH":"2015-04-08 10:00:33","EPOCH_MICROSECONDS":"544224","MEAN_MOTION":"13.43946086","ECCENTRICITY":"0.0031805","INCLINATION":"63.4144","RA_OF_ASC_NODE":"91.3655","ARG_OF_PERICENTER":"14.9523","MEAN_ANOMALY":"345.2435","EPHEMERIS_TYPE":"0","ELEMENT_SET_NO":"999","REV_AT_EPOCH":"3254","BSTAR":"0","MEAN_MOTION_DOT":"-9e-07","MEAN_MOTION_DDOT":"0","FILE":"1852972","TLE_LINE0":"0 CZ-4C DEB","TLE_LINE1":"1 40113U 14047E   15098.41705491 -.00000090  00000-0  00000+0 0  9998","TLE_LINE2":"2 40113 063.4144 091.3655 0031805 014.9523 345.2435 13.43946086 32547","OBJECT_ID":"2014-047E","OBJECT_NUMBER":"40113"},{"ORDINAL":"3","COMMENT":"GENERATED VIA SPACETRACK.ORG API","ORIGINATOR":"JSPOC","NORAD_CAT_ID":"40264","OBJECT_NAME":"CZ-2C DEB","OBJECT_TYPE":"DEBRIS","CLASSIFICATION_TYPE":"U","INTLDES":"14059D","EPOCH":"2015-04-08 10:03:13","EPOCH_MICROSECONDS":"639967","MEAN_MOTION":"14.47564757","ECCENTRICITY":"0.0113477","INCLINATION":"97.8724","RA_OF_ASC_NODE":"178.403","ARG_OF_PERICENTER":"347.7644","MEAN_ANOMALY":"12.0788","EPHEMERIS_TYPE":"0","ELEMENT_SET_NO":"999","REV_AT_EPOCH":"2779","BSTAR":"0.00097556","MEAN_MOTION_DOT":"3.849e-05","MEAN_MOTION_DDOT":"0","FILE":"1852835","TLE_LINE0":"0 CZ-2C DEB","TLE_LINE1":"1 40264U 14059D   15098.41890787  .00003849  00000-0  97556-3 0  9991","TLE_LINE2":"2 40264 097.8724 178.4030 0113477 347.7644 012.0788 14.47564757 27797","OBJECT_ID":"2014-059D","OBJECT_NUMBER":"40264"},{"ORDINAL":"2","COMMENT":"GENERATED VIA SPACETRACK.ORG API","ORIGINATOR":"JSPOC","NORAD_CAT_ID":"39629","OBJECT_NAME":"CZ-2C DEB","OBJECT_TYPE":"DEBRIS","CLASSIFICATION_TYPE":"U","INTLDES":"14014F","EPOCH":"2015-04-08 10:15:19","EPOCH_MICROSECONDS":"8575","MEAN_MOTION":"14.22420241","ECCENTRICITY":"0.0180078","INCLINATION":"98.4523","RA_OF_ASC_NODE":"142.9103","ARG_OF_PERICENTER":"165.914","MEAN_ANOMALY":"194.7157","EPHEMERIS_TYPE":"0","ELEMENT_SET_NO":"999","REV_AT_EPOCH":"5303","BSTAR":"0.0005632","MEAN_MOTION_DOT":"1.438e-05","MEAN_MOTION_DDOT":"0","FILE":"1853129","TLE_LINE0":"0 CZ-2C DEB","TLE_LINE1":"1 39629U 14014F   15098.42730334  .00001438  00000-0  56320-3 0  9993","TLE_LINE2":"2 39629 098.4523 142.9103 0180078 165.9140 194.7157 14.22420241 53039","OBJECT_ID":"2014-014F","OBJECT_NUMBER":"39629"},{"ORDINAL":"3","COMMENT":"GENERATED VIA SPACETRACK.ORG API","ORIGINATOR":"JSPOC","NORAD_CAT_ID":"40263","OBJECT_NAME":"CZ-2C DEB","OBJECT_TYPE":"DEBRIS","CLASSIFICATION_TYPE":"U","INTLDES":"14059C","EPOCH":"2015-04-08 10:34:20","EPOCH_MICROSECONDS":"387136","MEAN_MOTION":"14.48341761","ECCENTRICITY":"0.0112116","INCLINATION":"98.3224","RA_OF_ASC_NODE":"188.6715","ARG_OF_PERICENTER":"355.966","MEAN_ANOMALY":"4.0614","EPHEMERIS_TYPE":"0","ELEMENT_SET_NO":"999","REV_AT_EPOCH":"2781","BSTAR":"0.0007995","MEAN_MOTION_DOT":"3.189e-05","MEAN_MOTION_DDOT":"0","FILE":"1852836","TLE_LINE0":"0 CZ-2C DEB","TLE_LINE1":"1 40263U 14059C   15098.44051374  .00003189  00000-0  79950-3 0  9999","TLE_LINE2":"2 40263 098.3224 188.6715 0112116 355.9660 004.0614 14.48341761 27819","OBJECT_ID":"2014-059C","OBJECT_NUMBER":"40263"},{"ORDINAL":"5","COMMENT":"GENERATED VIA SPACETRACK.ORG API","ORIGINATOR":"JSPOC","NORAD_CAT_ID":"40279","OBJECT_NAME":"BREEZE-M DEB (TANK)","OBJECT_TYPE":"DEBRIS","CLASSIFICATION_TYPE":"U","INTLDES":"14064C","EPOCH":"2015-04-08 10:38:43","EPOCH_MICROSECONDS":"649663","MEAN_MOTION":"2.1605767","ECCENTRICITY":"0.7406201","INCLINATION":"48.9279","RA_OF_ASC_NODE":"223.6795","ARG_OF_PERICENTER":"36.7269","MEAN_ANOMALY":"355.9936","EPHEMERIS_TYPE":"0","ELEMENT_SET_NO":"999","REV_AT_EPOCH":"362","BSTAR":"0.00088314","MEAN_MOTION_DOT":"0.00019379","MEAN_MOTION_DDOT":"0","FILE":"1852662","TLE_LINE0":"0 BREEZE-M DEB (TANK)","TLE_LINE1":"1 40279U 14064C   15098.44356076  .00019379  00000-0  88314-3 0  9991","TLE_LINE2":"2 40279 048.9279 223.6795 7406201 036.7269 355.9936 02.16057670  3625","OBJECT_ID":"2014-064C","OBJECT_NUMBER":"40279"},{"ORDINAL":"4","COMMENT":"GENERATED VIA SPACETRACK.ORG API","ORIGINATOR":"JSPOC","NORAD_CAT_ID":"40279","OBJECT_NAME":"BREEZE-M DEB (TANK)","OBJECT_TYPE":"DEBRIS","CLASSIFICATION_TYPE":"U","INTLDES":"14064C","EPOCH":"2015-04-08 10:38:44","EPOCH_MICROSECONDS":"899007","MEAN_MOTION":"2.16029734","ECCENTRICITY":"0.7404611","INCLINATION":"48.9117","RA_OF_ASC_NODE":"223.6394","ARG_OF_PERICENTER":"36.8014","MEAN_ANOMALY":"355.9375","EPHEMERIS_TYPE":"0","ELEMENT_SET_NO":"999","REV_AT_EPOCH":"362","BSTAR":"0.0011609","MEAN_MOTION_DOT":"0.00021409","MEAN_MOTION_DDOT":"5.7948e-07","FILE":"1852909","TLE_LINE0":"0 BREEZE-M DEB (TANK)","TLE_LINE1":"1 40279U 14064C   15098.44357522  .00021409  57948-6  11609-2 0  9996","TLE_LINE2":"2 40279 048.9117 223.6394 7404611 036.8014 355.9375 02.16029734  3620","OBJECT_ID":"2014-064C","OBJECT_NUMBER":"40279"},{"ORDINAL":"4","COMMENT":"GENERATED VIA SPACETRACK.ORG API","ORIGINATOR":"JSPOC","NORAD_CAT_ID":"39730","OBJECT_NAME":"BREEZE-M DEB (TANK)","OBJECT_TYPE":"DEBRIS","CLASSIFICATION_TYPE":"U","INTLDES":"14023D","EPOCH":"2015-04-08 10:40:11","EPOCH_MICROSECONDS":"839008","MEAN_MOTION":"2.38191177","ECCENTRICITY":"0.7223642","INCLINATION":"46.904","RA_OF_ASC_NODE":"191.7506","ARG_OF_PERICENTER":"94.0706","MEAN_ANOMALY":"343.4847","EPHEMERIS_TYPE":"0","ELEMENT_SET_NO":"999","REV_AT_EPOCH":"793","BSTAR":"0.00077353","MEAN_MOTION_DOT":"0.00010599","MEAN_MOTION_DDOT":"0","FILE":"1852662","TLE_LINE0":"0 BREEZE-M DEB (TANK)","TLE_LINE1":"1 39730U 14023D   15098.44458147  .00010599  00000-0  77353-3 0  9994","TLE_LINE2":"2 39730 046.9040 191.7506 7223642 094.0706 343.4847 02.38191177  7939","OBJECT_ID":"2014-023D","OBJECT_NUMBER":"39730"},{"ORDINAL":"3","COMMENT":"GENERATED VIA SPACETRACK.ORG API","ORIGINATOR":"JSPOC","NORAD_CAT_ID":"40260","OBJECT_NAME":"BREEZE-M DEB (TANK)","OBJECT_TYPE":"DEBRIS","CLASSIFICATION_TYPE":"U","INTLDES":"14058C","EPOCH":"2015-04-08 10:41:01","EPOCH_MICROSECONDS":"567392","MEAN_MOTION":"2.27129949","ECCENTRICITY":"0.7225903","INCLINATION":"45.5987","RA_OF_ASC_NODE":"268.0625","ARG_OF_PERICENTER":"53.5636","MEAN_ANOMALY":"353.2739","EPHEMERIS_TYPE":"0","ELEMENT_SET_NO":"999","REV_AT_EPOCH":"434","BSTAR":"0","MEAN_MOTION_DOT":"-1.27e-06","MEAN_MOTION_DDOT":"0","FILE":"1852636","TLE_LINE0":"0 BREEZE-M DEB (TANK)","TLE_LINE1":"1 40260U 14058C   15098.44515703 -.00000127  00000-0  00000+0 0  9992","TLE_LINE2":"2 40260 045.5987 268.0625 7225903 053.5636 353.2739 02.27129949  4345","OBJECT_ID":"2014-058C","OBJECT_NUMBER":"40260"},{"ORDINAL":"2","COMMENT":"GENERATED VIA SPACETRACK.ORG API","ORIGINATOR":"JSPOC","NORAD_CAT_ID":"40265","OBJECT_NAME":"CZ-2C DEB","OBJECT_TYPE":"DEBRIS","CLASSIFICATION_TYPE":"U","INTLDES":"14059E","EPOCH":"2015-04-08 10:50:31","EPOCH_MICROSECONDS":"707167","MEAN_MOTION":"14.18507163","ECCENTRICITY":"0.0197786","INCLINATION":"97.9285","RA_OF_ASC_NODE":"171.6234","ARG_OF_PERICENTER":"326.36","MEAN_ANOMALY":"32.5148","EPHEMERIS_TYPE":"0","ELEMENT_SET_NO":"999","REV_AT_EPOCH":"2724","BSTAR":"0.00054301","MEAN_MOTION_DOT":"1.323e-05","MEAN_MOTION_DDOT":"0","FILE":"1852837","TLE_LINE0":"0 CZ-2C DEB","TLE_LINE1":"1 40265U 14059E   15098.45175587  .00001323  00000-0  54301-3 0  9996","TLE_LINE2":"2 40265 097.9285 171.6234 0197786 326.3600 032.5148 14.18507163 27245","OBJECT_ID":"2014-059E","OBJECT_NUMBER":"40265"},{"ORDINAL":"5","COMMENT":"GENERATED VIA SPACETRACK.ORG API","ORIGINATOR":"JSPOC","NORAD_CAT_ID":"40291","OBJECT_NAME":"CZ-2C DEB","OBJECT_TYPE":"DEBRIS","CLASSIFICATION_TYPE":"U","INTLDES":"14066F","EPOCH":"2015-04-08 10:57:59","EPOCH_MICROSECONDS":"196095","MEAN_MOTION":"14.22395948","ECCENTRICITY":"0.0179266","INCLINATION":"98.4462","RA_OF_ASC_NODE":"210.8087","ARG_OF_PERICENTER":"54.7556","MEAN_ANOMALY":"307.0251","EPHEMERIS_TYPE":"0","ELEMENT_SET_NO":"999","REV_AT_EPOCH":"2318","BSTAR":"0.00095902","MEAN_MOTION_DOT":"2.474e-05","MEAN_MOTION_DDOT":"0","FILE":"1852924","TLE_LINE0":"0 CZ-2C DEB","TLE_LINE1":"1 40291U 14066F   15098.45693514  .00002474  00000-0  95902-3 0  9998","TLE_LINE2":"2 40291 098.4462 210.8087 0179266 054.7556 307.0251 14.22395948 23189","OBJECT_ID":"2014-066F","OBJECT_NUMBER":"40291"},{"ORDINAL":"2","COMMENT":"GENERATED VIA SPACETRACK.ORG API","ORIGINATOR":"JSPOC","NORAD_CAT_ID":"40266","OBJECT_NAME":"CZ-2C DEB","OBJECT_TYPE":"DEBRIS","CLASSIFICATION_TYPE":"U","INTLDES":"14059F","EPOCH":"2015-04-08 11:10:43","EPOCH_MICROSECONDS":"782527","MEAN_MOTION":"14.19569771","ECCENTRICITY":"0.0193472","INCLINATION":"98.3423","RA_OF_ASC_NODE":"180.6848","ARG_OF_PERICENTER":"329.9229","MEAN_ANOMALY":"29.0947","EPHEMERIS_TYPE":"0","ELEMENT_SET_NO":"999","REV_AT_EPOCH":"2726","BSTAR":"0.00058649","MEAN_MOTION_DOT":"1.448e-05","MEAN_MOTION_DDOT":"0","FILE":"1852748","TLE_LINE0":"0 CZ-2C DEB","TLE_LINE1":"1 40266U 14059F   15098.46578452  .00001448  00000-0  58649-3 0  9993","TLE_LINE2":"2 40266 098.3423 180.6848 0193472 329.9229 029.0947 14.19569771 27264","OBJECT_ID":"2014-059F","OBJECT_NUMBER":"40266"}]